CTC2_L_00090001-01
1 77436U 26851FB  26070.40842593  .00000000  00000+0  00000-0 0  9998
2 77436  70.0000   0.0000 0000000   0.0000   0.0000 15.18623435    15
CTC2_L_00090001-02
1 77437U 24217AL  26070.40842593  .00000000  00000+0  00000-0 0  9993
2 77437  70.0000   0.0000 0000000   0.0000  90.0000 15.18623435    15
CTC2_L_00090001-03
1 77438U 22772LV  26070.40842593  .00000000  00000+0  00000-0 0  9998
2 77438  70.0000   0.0000 0000000   0.0000 180.0000 15.18623435    16
CTC2_L_00090001-04
1 77439U 23529LD  26070.40842593  .00000000  00000+0  00000-0 0  9990
2 77439  70.0000   0.0000 0000000   0.0000 270.0000 15.18623435    17
CTC2_L_00090002-01
1 77440U 26437WE  26070.40842593  .00000000  00000+0  00000-0 0  9993
2 77440  70.0000  12.0000 0000000   0.0000  12.0000 15.18623435    16
CTC2_L_00090002-02
1 77441U 26101EB  26070.40842593  .00000000  00000+0  00000-0 0  9992
2 77441  70.0000  12.0000 0000000   0.0000 102.0000 15.18623435    17
CTC2_L_00090002-03
1 77442U 22299IB  26070.40842593  .00000000  00000+0  00000-0 0  9997
2 77442  70.0000  12.0000 0000000   0.0000 192.0000 15.18623435    17
CTC2_L_00090002-04
1 77443U 25770DH  26070.40842593  .00000000  00000+0  00000-0 0  9995
2 77443  70.0000  12.0000 0000000   0.0000 282.0000 15.18623435    18
CTC2_L_00090003-01
1 77444U 26877T   26070.40842593  .00000000  00000+0  00000-0 0  9995
2 77444  70.0000  24.0000 0000000   0.0000  24.0000 15.18623435    16
CTC2_L_00090003-02
1 77445U 24460RS  26070.40842593  .00000000  00000+0  00000-0 0  9992
2 77445  70.0000  24.0000 0000000   0.0000 114.0000 15.18623435    17
CTC2_L_00090003-03
1 77446U 24474GY  26070.40842593  .00000000  00000+0  00000-0 0  9998
2 77446  70.0000  24.0000 0000000   0.0000 204.0000 15.18623435    18
CTC2_L_00090003-04
1 77447U 24800YK  26070.40842593  .00000000  00000+0  00000-0 0  9992
2 77447  70.0000  24.0000 0000000   0.0000 294.0000 15.18623435    18
CTC2_L_00090004-01
1 77448U 25125AR  26070.40842593  .00000000  00000+0  00000-0 0  9994
2 77448  70.0000  36.0000 0000000   0.0000  36.0000 15.18623435    16
CTC2_L_00090004-02
1 77449U 26734KF  26070.40842593  .00000000  00000+0  00000-0 0  9992
2 77449  70.0000  36.0000 0000000   0.0000 126.0000 15.18623435    17
CTC2_L_00090004-03
1 77450U 25071RA  26070.40842593  .00000000  00000+0  00000-0 0  9997
2 77450  70.0000  36.0000 0000000   0.0000 216.0000 15.18623435    19
CTC2_L_00090004-04
1 77451U 22315PG  26070.40842593  .00000000  00000+0  00000-0 0  9996
2 77451  70.0000  36.0000 0000000   0.0000 306.0000 15.18623435    10
CTC2_L_00090005-01
1 77452U 26982QP  26070.40842593  .00000000  00000+0  00000-0 0  9991
2 77452  70.0000  48.0000 0000000   0.0000  48.0000 15.18623435    17
CTC2_L_00090005-02
1 77453U 24891SI  26070.40842593  .00000000  00000+0  00000-0 0  9999
2 77453  70.0000  48.0000 0000000   0.0000 138.0000 15.18623435    18
CTC2_L_00090005-03
1 77454U 26674YV  26070.40842593  .00000000  00000+0  00000-0 0  9991
2 77454  70.0000  48.0000 0000000   0.0000 228.0000 15.18623435    19
CTC2_L_00090005-04
1 77455U 23094RB  26070.40842593  .00000000  00000+0  00000-0 0  9995
2 77455  70.0000  48.0000 0000000   0.0000 318.0000 15.18623435    10
CTC2_L_00090006-01
1 77456U 22405AA  26070.40842593  .00000000  00000+0  00000-0 0  9991
2 77456  70.0000  60.0000 0000000   0.0000  60.0000 15.18623435    19
CTC2_L_00090006-02
1 77457U 22793WT  26070.40842593  .00000000  00000+0  00000-0 0  9992
2 77457  70.0000  60.0000 0000000   0.0000 150.0000 15.18623435    10
CTC2_L_00090006-03
1 77458U 23837EF  26070.40842593  .00000000  00000+0  00000-0 0  9993
2 77458  70.0000  60.0000 0000000   0.0000 240.0000 15.18623435    11
CTC2_L_00090006-04
1 77459U 22193X   26070.40842593  .00000000  00000+0  00000-0 0  9998
2 77459  70.0000  60.0000 0000000   0.0000 330.0000 15.18623435    12
CTC2_L_00090007-01
1 77460U 23765UQ  26070.40842593  .00000000  00000+0  00000-0 0  9996
2 77460  70.0000  72.0000 0000000   0.0000  72.0000 15.18623435    10
CTC2_L_00090007-02
1 77461U 22653FM  26070.40842593  .00000000  00000+0  00000-0 0  9992
2 77461  70.0000  72.0000 0000000   0.0000 162.0000 15.18623435    11
CTC2_L_00090007-03
1 77462U 23057FJ  26070.40842593  .00000000  00000+0  00000-0 0  9992
2 77462  70.0000  72.0000 0000000   0.0000 252.0000 15.18623435    12
CTC2_L_00090007-04
1 77463U 22125HB  26070.40842593  .00000000  00000+0  00000-0 0  9998
2 77463  70.0000  72.0000 0000000   0.0000 342.0000 15.18623435    13
CTC2_L_00090008-01
1 77464U 23319CR  26070.40842593  .00000000  00000+0  00000-0 0  9995
2 77464  70.0000  84.0000 0000000   0.0000  84.0000 15.18623435    10
CTC2_L_00090008-02
1 77465U 22808DU  26070.40842593  .00000000  00000+0  00000-0 0  9998
2 77465  70.0000  84.0000 0000000   0.0000 174.0000 15.18623435    11
CTC2_L_00090008-03
1 77466U 22249VV  26070.40842593  .00000000  00000+0  00000-0 0  9998
2 77466  70.0000  84.0000 0000000   0.0000 264.0000 15.18623435    12
CTC2_L_00090008-04
1 77467U 25496JK  26070.40842593  .00000000  00000+0  00000-0 0  9996
2 77467  70.0000  84.0000 0000000   0.0000 354.0000 15.18623435    13
CTC2_L_00090009-01
1 77468U 22237GA  26070.40842593  .00000000  00000+0  00000-0 0  9997
2 77468  70.0000  96.0000 0000000   0.0000  96.0000 15.18623435    10
CTC2_L_00090009-02
1 77469U 22203JJ  26070.40842593  .00000000  00000+0  00000-0 0  9991
2 77469  70.0000  96.0000 0000000   0.0000 186.0000 15.18623435    11
CTC2_L_00090009-03
1 77470U 24798AO  26070.40842593  .00000000  00000+0  00000-0 0  9994
2 77470  70.0000  96.0000 0000000   0.0000 276.0000 15.18623435    13
CTC2_L_00090009-04
1 77471U 26491LU  26070.40842593  .00000000  00000+0  00000-0 0  9997
2 77471  70.0000  96.0000 0000000   0.0000   6.0000 15.18623435    15
CTC2_L_00090010-01
1 77472U 22625CA  26070.40842593  .00000000  00000+0  00000-0 0  9993
2 77472  70.0000 108.0000 0000000   0.0000 108.0000 15.18623435    13
CTC2_L_00090010-02
1 77473U 25845LJ  26070.40842593  .00000000  00000+0  00000-0 0  9991
2 77473  70.0000 108.0000 0000000   0.0000 198.0000 15.18623435    13
CTC2_L_00090010-03
1 77474U 22756RC  26070.40842593  .00000000  00000+0  00000-0 0  9990
2 77474  70.0000 108.0000 0000000   0.0000 288.0000 15.18623435    14
CTC2_L_00090010-04
1 77475U 25394AR  26070.40842593  .00000000  00000+0  00000-0 0  9992
2 77475  70.0000 108.0000 0000000   0.0000  18.0000 15.18623435    16
CTC2_L_00090011-01
1 77476U 25380RX  26070.40842593  .00000000  00000+0  00000-0 0  9998
2 77476  70.0000 120.0000 0000000   0.0000 120.0000 15.18623435    15
CTC2_L_00090011-02
1 77477U 24052RT  26070.40842593  .00000000  00000+0  00000-0 0  9994
2 77477  70.0000 120.0000 0000000   0.0000 210.0000 15.18623435    16
CTC2_L_00090011-03
1 77478U 25532LT  26070.40842593  .00000000  00000+0  00000-0 0  9999
2 77478  70.0000 120.0000 0000000   0.0000 300.0000 15.18623435    17
CTC2_L_00090011-04
1 77479U 24897AA  26070.40842593  .00000000  00000+0  00000-0 0  9993
2 77479  70.0000 120.0000 0000000   0.0000  30.0000 15.18623435    18
CTC2_L_00090012-01
1 77480U 24568CA  26070.40842593  .00000000  00000+0  00000-0 0  9990
2 77480  70.0000 132.0000 0000000   0.0000 132.0000 15.18623435    16
CTC2_L_00090012-02
1 77481U 23738AA  26070.40842593  .00000000  00000+0  00000-0 0  9999
2 77481  70.0000 132.0000 0000000   0.0000 222.0000 15.18623435    17
CTC2_L_00090012-03
1 77482U 22338OY  26070.40842593  .00000000  00000+0  00000-0 0  9995
2 77482  70.0000 132.0000 0000000   0.0000 312.0000 15.18623435    18
CTC2_L_00090012-04
1 77483U 26859CZ  26070.40842593  .00000000  00000+0  00000-0 0  9998
2 77483  70.0000 132.0000 0000000   0.0000  42.0000 15.18623435    19
CTC2_L_00090013-01
1 77484U 26403VS  26070.40842593  .00000000  00000+0  00000-0 0  9994
2 77484  70.0000 144.0000 0000000   0.0000 144.0000 15.18623435    16
CTC2_L_00090013-02
1 77485U 26895ZV  26070.40842593  .00000000  00000+0  00000-0 0  9990
2 77485  70.0000 144.0000 0000000   0.0000 234.0000 15.18623435    17
CTC2_L_00090013-03
1 77486U 24072NH  26070.40842593  .00000000  00000+0  00000-0 0  9996
2 77486  70.0000 144.0000 0000000   0.0000 324.0000 15.18623435    18
CTC2_L_00090013-04
1 77487U 25169ED  26070.40842593  .00000000  00000+0  00000-0 0  9995
2 77487  70.0000 144.0000 0000000   0.0000  54.0000 15.18623435    19
CTC2_L_00090014-01
1 77488U 22193IL  26070.40842593  .00000000  00000+0  00000-0 0  9990
2 77488  70.0000 156.0000 0000000   0.0000 156.0000 15.18623435    16
CTC2_L_00090014-02
1 77489U 22771EU  26070.40842593  .00000000  00000+0  00000-0 0  9993
2 77489  70.0000 156.0000 0000000   0.0000 246.0000 15.18623435    17
CTC2_L_00090014-03
1 77490U 24423CJ  26070.40842593  .00000000  00000+0  00000-0 0  9991
2 77490  70.0000 156.0000 0000000   0.0000 336.0000 15.18623435    19
CTC2_L_00090014-04
1 77491U 22041CG  26070.40842593  .00000000  00000+0  00000-0 0  9996
2 77491  70.0000 156.0000 0000000   0.0000  66.0000 15.18623435    10
CTC2_L_00090015-01
1 77492U 23639JA  26070.40842593  .00000000  00000+0  00000-0 0  9991
2 77492  70.0000 168.0000 0000000   0.0000 168.0000 15.18623435    17
CTC2_L_00090015-02
1 77493U 22133BY  26070.40842593  .00000000  00000+0  00000-0 0  9990
2 77493  70.0000 168.0000 0000000   0.0000 258.0000 15.18623435    18
CTC2_L_00090015-03
1 77494U 24257Y   26070.40842593  .00000000  00000+0  00000-0 0  9990
2 77494  70.0000 168.0000 0000000   0.0000 348.0000 15.18623435    19
CTC2_L_00090015-04
1 77495U 25095VU  26070.40842593  .00000000  00000+0  00000-0 0  9992
2 77495  70.0000 168.0000 0000000   0.0000  78.0000 15.18623435    10
CTC2_L_00090016-01
1 77496U 23662LZ  26070.40842593  .00000000  00000+0  00000-0 0  9991
2 77496  70.0000 180.0000 0000000   0.0000 180.0000 15.18623435    19
CTC2_L_00090016-02
1 77497U 25939PN  26070.40842593  .00000000  00000+0  00000-0 0  9991
2 77497  70.0000 180.0000 0000000   0.0000 270.0000 15.18623435    10
